{
    "links": {
        "self": "http://www.neowsapp.com/rest/v1/neo/54016320?api_key=iIulBulltgU6a56xZRHN4H3l9WmuAYTsLGpBGhQ2"
    },
    "id": "54016320",
    "neo_reference_id": "54016320",
    "name": "(2020 FM3)",
    "designation": "2020 FM3",
    "nasa_jpl_url": "http://ssd.jpl.nasa.gov/sbdb.cgi?sstr=54016320",
    "absolute_magnitude_h": 23.384,
    "estimated_diameter": {
        "kilometers": {
            "estimated_diameter_min": 0.0559441882,
            "estimated_diameter_max": 0.1250950079
        },
        "meters": {
            "estimated_diameter_min": 55.9441882485,
            "estimated_diameter_max": 125.0950078696
        },
        "miles": {
            "estimated_diameter_min": 0.0347620962,
            "estimated_diameter_max": 0.0777304101
        },
        "feet": {
            "estimated_diameter_min": 183.5439305731,
            "estimated_diameter_max": 410.416705619
        }
    },
    "is_potentially_hazardous_asteroid": false,
    "close_approach_data": [
        {
            "close_approach_date": "2020-04-11",
            "close_approach_date_full": "2020-Apr-11 00:59",
            "epoch_date_close_approach": 1586566740000,
            "relative_velocity": {
                "kilometers_per_second": "10.6242370937",
                "kilometers_per_hour": "38247.253537154",
                "miles_per_hour": "23765.3559547944"
            },
            "miss_distance": {
                "astronomical": "0.1049904474",
                "lunar": "40.8412840386",
                "kilometers": "15706347.301387038",
                "miles": "9759471.6603676044"
            },
            "orbiting_body": "Earth"
        }
    ],
    "orbital_data": {
        "orbit_id": "5",
        "orbit_determination_date": "2020-04-03 06:34:50",
        "first_observation_date": "2020-03-22",
        "last_observation_date": "2020-04-02",
        "data_arc_in_days": 11,
        "observations_used": 37,
        "orbit_uncertainty": "8",
        "minimum_orbit_intersection": ".0921219",
        "jupiter_tisserand_invariant": "3.261",
        "epoch_osculation": "2458932.5",
        "eccentricity": ".5471471957384116",
        "semi_major_axis": "2.41058642076187",
        "inclination": "14.66635845479812",
        "ascending_node_longitude": "21.31577876137271",
        "orbital_period": "1367.043976204323",
        "perihelion_distance": "1.091640820556918",
        "perihelion_argument": "189.8031524505303",
        "aphelion_distance": "3.729532020966821",
        "perihelion_time": "2458957.123047688265",
        "mean_anomaly": "353.5157190828728",
        "mean_motion": ".2633419306667521",
        "equinox": "J2000",
        "orbit_class": {
            "orbit_class_type": "AMO",
            "orbit_class_description": "Near-Earth asteroid orbits similar to that of 1221 Amor",
            "orbit_class_range": "1.017 AU < q (perihelion) < 1.3 AU"
        }
    },
    "is_sentry_object": false
}